start=new Date('2021-11-17T00:00:00.000Z').valueOf();
sats=[{"LAUNCH_DATE":"2021-03-11","OBJECT_ID":"2021-018BM","ECCENTRICITY":"0.00017850","RCS_SIZE":"LARGE","TLE_LINE1":"1 47846U 21018BM  21320.43245471  .00000609  00000-0  59782-4 0  9999","EPHEMERIS_TYPE":"0","DECAY_DATE":null,"MEAN_MOTION":"15.06386900","ELEMENT_SET_NO":"999","GP_ID":"189881889","RA_OF_ASC_NODE":"118.7387","SITE":"AFETR","OBJECT_NAME":"STARLINK-2456","PERIAPSIS":"546.018","MEAN_MOTION_DDOT":"0.0000000000000","CLASSIFICATION_TYPE":"U","SEMIMAJOR_AXIS":"6925.389","APOAPSIS":"548.490","INCLINATION":"53.0542","TLE_LINE2":"2 47846  53.0542 118.7387 0001785  84.9894 275.1299 15.06386900 39373","MEAN_MOTION_DOT":"0.00000609","BSTAR":"0.00005978200000","REF_FRAME":"TEME","FILE":"3216827","MEAN_ANOMALY":"275.1299","REV_AT_EPOCH":"3937","COUNTRY_CODE":"US","OBJECT_TYPE":"PAYLOAD","ARG_OF_PERICENTER":"84.9894","NORAD_CAT_ID":"47846","PERIOD":"95.593","MEAN_ELEMENT_THEORY":"SGP4","CENTER_NAME":"EARTH","TIME_SYSTEM":"UTC","EPOCH":"2021-11-16T10:22:44.086944"},{"ELEMENT_SET_NO":"999","GP_ID":"189881389","SITE":"AFETR","RA_OF_ASC_NODE":"148.4201","MEAN_MOTION_DDOT":"0.0000000000000","PERIAPSIS":"546.043","OBJECT_NAME":"STARLINK-2258","CLASSIFICATION_TYPE":"U","APOAPSIS":"548.389","INCLINATION":"53.0562","SEMIMAJOR_AXIS":"6925.351","MEAN_MOTION_DOT":"0.00000528","TLE_LINE2":"2 47860  53.0562 148.4201 0001694  73.4701 286.6474 15.06399153 38684","FILE":"3216827","MEAN_ANOMALY":"286.6474","BSTAR":"0.00005433600000","REF_FRAME":"TEME","OBJECT_TYPE":"PAYLOAD","COUNTRY_CODE":"US","REV_AT_EPOCH":"3868","ARG_OF_PERICENTER":"73.4701","NORAD_CAT_ID":"47860","PERIOD":"95.592","MEAN_ELEMENT_THEORY":"SGP4","CENTER_NAME":"EARTH","TIME_SYSTEM":"UTC","EPOCH":"2021-11-16T12:04:54.063264","LAUNCH_DATE":"2021-03-14","OBJECT_ID":"2021-021A","RCS_SIZE":"LARGE","ECCENTRICITY":"0.00016940","TLE_LINE1":"1 47860U 21021A   21320.50340351  .00000528  00000-0  54336-4 0  9990","EPHEMERIS_TYPE":"0","DECAY_DATE":null,"MEAN_MOTION":"15.06399153"},{"COUNTRY_CODE":"US","OBJECT_TYPE":"PAYLOAD","REV_AT_EPOCH":"3855","ARG_OF_PERICENTER":"77.8636","NORAD_CAT_ID":"47861","PERIOD":"95.592","MEAN_ELEMENT_THEORY":"SGP4","CENTER_NAME":"EARTH","TIME_SYSTEM":"UTC","EPOCH":"2021-11-16T18:52:56.423424","GP_ID":"189890354","ELEMENT_SET_NO":"999","SITE":"AFETR","RA_OF_ASC_NODE":"132.1501","PERIAPSIS":"545.930","MEAN_MOTION_DDOT":"0.0000000000000","OBJECT_NAME":"STARLINK-2280","CLASSIFICATION_TYPE":"U","INCLINATION":"53.0563","APOAPSIS":"548.491","SEMIMAJOR_AXIS":"6925.345","MEAN_MOTION_DOT":"0.00001121","TLE_LINE2":"2 47861  53.0563 132.1501 0001849  77.8636 282.2560 15.06401096 38550","MEAN_ANOMALY":"282.2560","FILE":"3217141","REF_FRAME":"TEME","BSTAR":"0.00009414600000","TLE_LINE1":"1 47861U 21021B   21320.78676416  .00001121  00000-0  94146-4 0  9998","EPHEMERIS_TYPE":"0","DECAY_DATE":null,"MEAN_MOTION":"15.06401096","LAUNCH_DATE":"2021-03-14","OBJECT_ID":"2021-021B","RCS_SIZE":"LARGE","ECCENTRICITY":"0.00018490"},{"EPHEMERIS_TYPE":"0","TLE_LINE1":"1 47862U 21021C   21320.76694606 -.00000785  00000-0 -33800-4 0  9995","MEAN_MOTION":"15.06394507","DECAY_DATE":null,"RCS_SIZE":"LARGE","ECCENTRICITY":"0.00016700","LAUNCH_DATE":"2021-03-14","OBJECT_ID":"2021-021C","NORAD_CAT_ID":"47862","PERIOD":"95.592","COUNTRY_CODE":"US","OBJECT_TYPE":"PAYLOAD","REV_AT_EPOCH":"3862","ARG_OF_PERICENTER":"77.7102","TIME_SYSTEM":"UTC","CENTER_NAME":"EARTH","EPOCH":"2021-11-16T18:24:24.139584","MEAN_ELEMENT_THEORY":"SGP4","PERIAPSIS":"546.074","MEAN_MOTION_DDOT":"0.0000000000000","OBJECT_NAME":"STARLINK-2291","ELEMENT_SET_NO":"999","GP_ID":"189888448","SITE":"AFETR","RA_OF_ASC_NODE":"127.2307","MEAN_MOTION_DOT":"-0.00000785","TLE_LINE2":"2 47862  53.0555 127.2307 0001670  77.7102 282.4074 15.06394507 38628","MEAN_ANOMALY":"282.4074","FILE":"3217052","REF_FRAME":"TEME","BSTAR":"-0.00003380000000","CLASSIFICATION_TYPE":"U","INCLINATION":"53.0555","APOAPSIS":"548.387","SEMIMAJOR_AXIS":"6925.365"},{"NORAD_CAT_ID":"47863","PERIOD":"95.592","OBJECT_TYPE":"PAYLOAD","COUNTRY_CODE":"US","REV_AT_EPOCH":"3893","ARG_OF_PERICENTER":"81.2182","CENTER_NAME":"EARTH","TIME_SYSTEM":"UTC","EPOCH":"2021-11-16T12:38:04.752960","MEAN_ELEMENT_THEORY":"SGP4","PERIAPSIS":"546.046","MEAN_MOTION_DDOT":"0.0000000000000","OBJECT_NAME":"STARLINK-2293","GP_ID":"189882141","ELEMENT_SET_NO":"999","SITE":"AFETR","RA_OF_ASC_NODE":"138.3094","MEAN_MOTION_DOT":"0.00000301","TLE_LINE2":"2 47863  53.0542 138.3094 0001704  81.2182 278.9000 15.06395871 38935","FILE":"3216827","MEAN_ANOMALY":"278.9000","BSTAR":"0.00003911800000","REF_FRAME":"TEME","CLASSIFICATION_TYPE":"U","INCLINATION":"53.0542","APOAPSIS":"548.406","SEMIMAJOR_AXIS":"6925.361","EPHEMERIS_TYPE":"0","TLE_LINE1":"1 47863U 21021D   21320.52644390  .00000301  00000-0  39118-4 0  9995","MEAN_MOTION":"15.06395871","DECAY_DATE":null,"RCS_SIZE":"LARGE","ECCENTRICITY":"0.00017040","LAUNCH_DATE":"2021-03-14","OBJECT_ID":"2021-021D"},{"OBJECT_ID":"2021-021E","LAUNCH_DATE":"2021-03-14","ECCENTRICITY":"0.00013210","RCS_SIZE":"LARGE","DECAY_DATE":null,"MEAN_MOTION":"15.06409784","TLE_LINE1":"1 47864U 21021E   21320.50061020  .00000790  00000-0  71881-4 0  9992","EPHEMERIS_TYPE":"0","SEMIMAJOR_AXIS":"6925.319","INCLINATION":"53.0557","APOAPSIS":"548.098","CLASSIFICATION_TYPE":"U","REF_FRAME":"TEME","BSTAR":"0.00007188100000","MEAN_ANOMALY":"272.9080","FILE":"3216827","TLE_LINE2":"2 47864  53.0557 128.4272 0001321  87.2060 272.9080 15.06409784 39040","MEAN_MOTION_DOT":"0.00000790","RA_OF_ASC_NODE":"128.4272","SITE":"AFETR","GP_ID":"189880889","ELEMENT_SET_NO":"999","OBJECT_NAME":"STARLINK-2304","PERIAPSIS":"546.269","MEAN_MOTION_DDOT":"0.0000000000000","MEAN_ELEMENT_THEORY":"SGP4","EPOCH":"2021-11-16T12:00:52.721280","CENTER_NAME":"EARTH","TIME_SYSTEM":"UTC","ARG_OF_PERICENTER":"87.2060","REV_AT_EPOCH":"3904","OBJECT_TYPE":"PAYLOAD","COUNTRY_CODE":"US","PERIOD":"95.592","NORAD_CAT_ID":"47864"},{"REF_FRAME":"TEME","BSTAR":"0.00007644700000","FILE":"3216827","MEAN_ANOMALY":"279.8960","TLE_LINE2":"2 47865  53.0542 138.4112 0001600  80.2210 279.8960 15.06394251 39033","MEAN_MOTION_DOT":"0.00000857","SEMIMAJOR_AXIS":"6925.366","INCLINATION":"53.0542","APOAPSIS":"548.339","CLASSIFICATION_TYPE":"U","OBJECT_NAME":"STARLINK-2310","PERIAPSIS":"546.123","MEAN_MOTION_DDOT":"0.0000000000000","RA_OF_ASC_NODE":"138.4112","SITE":"AFETR","GP_ID":"189881133","ELEMENT_SET_NO":"999","EPOCH":"2021-11-16T12:00:55.989792","CENTER_NAME":"EARTH","TIME_SYSTEM":"UTC","MEAN_ELEMENT_THEORY":"SGP4","PERIOD":"95.593","NORAD_CAT_ID":"47865","ARG_OF_PERICENTER":"80.2210","REV_AT_EPOCH":"3903","COUNTRY_CODE":"US","OBJECT_TYPE":"PAYLOAD","ECCENTRICITY":"0.00016000","RCS_SIZE":"LARGE","OBJECT_ID":"2021-021F","LAUNCH_DATE":"2021-03-14","MEAN_MOTION":"15.06394251","DECAY_DATE":null,"EPHEMERIS_TYPE":"0","TLE_LINE1":"1 47865U 21021F   21320.50064803  .00000857  00000-0  76447-4 0  9992"},{"EPHEMERIS_TYPE":"0","TLE_LINE1":"1 47866U 21021G   21319.97356669  .00000453  00000-0  49304-4 0  9990","MEAN_MOTION":"15.06390076","DECAY_DATE":null,"RCS_SIZE":"LARGE","ECCENTRICITY":"0.00017300","OBJECT_ID":"2021-021G","LAUNCH_DATE":"2021-03-14","PERIOD":"95.593","NORAD_CAT_ID":"47866","ARG_OF_PERICENTER":"73.8607","OBJECT_TYPE":"PAYLOAD","COUNTRY_CODE":"US","REV_AT_EPOCH":"3900","EPOCH":"2021-11-15T23:21:56.162016","CENTER_NAME":"EARTH","TIME_SYSTEM":"UTC","MEAN_ELEMENT_THEORY":"SGP4","MEAN_MOTION_DDOT":"0.0000000000000","PERIAPSIS":"546.046","OBJECT_NAME":"STARLINK-2320","SITE":"AFETR","RA_OF_ASC_NODE":"140.7870","ELEMENT_SET_NO":"999","GP_ID":"189881891","MEAN_ANOMALY":"286.2573","FILE":"3216827","REF_FRAME":"TEME","BSTAR":"0.00004930400000","MEAN_MOTION_DOT":"0.00000453","TLE_LINE2":"2 47866  53.0550 140.7870 0001730  73.8607 286.2573 15.06390076 39002","INCLINATION":"53.0550","APOAPSIS":"548.442","SEMIMAJOR_AXIS":"6925.379","CLASSIFICATION_TYPE":"U"},{"NORAD_CAT_ID":"47867","PERIOD":"95.592","REV_AT_EPOCH":"3902","COUNTRY_CODE":"US","OBJECT_TYPE":"PAYLOAD","ARG_OF_PERICENTER":"74.4649","TIME_SYSTEM":"UTC","CENTER_NAME":"EARTH","EPOCH":"2021-11-16T11:56:55.850496","MEAN_ELEMENT_THEORY":"SGP4","OBJECT_NAME":"STARLINK-2321","MEAN_MOTION_DDOT":"0.0000000000000","PERIAPSIS":"545.842","ELEMENT_SET_NO":"999","GP_ID":"189882642","RA_OF_ASC_NODE":"128.4272","SITE":"AFETR","TLE_LINE2":"2 47867  53.0544 128.4272 0001939  74.4649 285.6554 15.06409335 39022","MEAN_MOTION_DOT":"0.00001229","BSTAR":"0.00010135000000","REF_FRAME":"TEME","MEAN_ANOMALY":"285.6554","FILE":"3216827","CLASSIFICATION_TYPE":"U","SEMIMAJOR_AXIS":"6925.320","APOAPSIS":"548.528","INCLINATION":"53.0544","EPHEMERIS_TYPE":"0","TLE_LINE1":"1 47867U 21021H   21320.49786864  .00001229  00000-0  10135-3 0  9995","MEAN_MOTION":"15.06409335","DECAY_DATE":null,"ECCENTRICITY":"0.00019390","RCS_SIZE":"LARGE","LAUNCH_DATE":"2021-03-14","OBJECT_ID":"2021-021H"},{"BSTAR":"-0.01832200000000","REF_FRAME":"TEME","MEAN_ANOMALY":"304.6418","FILE":"3216827","TLE_LINE2":"2 47868  53.0463  78.1574 0002067  55.4767 304.6418 15.08973834 39788","MEAN_MOTION_DOT":"-0.00281738","SEMIMAJOR_AXIS":"6917.471","INCLINATION":"53.0463","APOAPSIS":"540.766","CLASSIFICATION_TYPE":"U","OBJECT_NAME":"STARLINK-2323","MEAN_MOTION_DDOT":"0.0000000000000","PERIAPSIS":"537.907","RA_OF_ASC_NODE":"78.1574","SITE":"AFETR","ELEMENT_SET_NO":"999","GP_ID":"189881390","EPOCH":"2021-11-16T13:24:11.572128","TIME_SYSTEM":"UTC","CENTER_NAME":"EARTH","MEAN_ELEMENT_THEORY":"SGP4","PERIOD":"95.429","NORAD_CAT_ID":"47868","ARG_OF_PERICENTER":"55.4767","REV_AT_EPOCH":"3978","COUNTRY_CODE":"US","OBJECT_TYPE":"PAYLOAD","ECCENTRICITY":"0.00020670","RCS_SIZE":"LARGE","OBJECT_ID":"2021-021J","LAUNCH_DATE":"2021-03-14","MEAN_MOTION":"15.08973834","DECAY_DATE":null,"EPHEMERIS_TYPE":"0","TLE_LINE1":"1 47868U 21021J   21320.55846727 -.00281738  00000-0 -18322-1 0  9999"}];
